{
  "type": "FeatureCollection",
  "features": [
    {
      "type": "Feature",
      "properties": {
        "norad_id": 54259,
        "name": "EUTELSAT 10B",
        "group": "eutelsat",
        "lat": 0.017831338097083625,
        "lon": 89.97578515953931,
        "alt_km": 35783.552749950875,
        "timestamp": "2025-12-16T23:36:35.856789+00:00",
        "meta_object_name": "EUTELSAT 10B",
        "meta_object_id": "2022-157A",
        "meta_epoch": "2025-12-16T06:33:24.433344",
        "meta_mean_motion": 1.00271269,
        "meta_eccentricity": 7.086e-05,
        "meta_inclination": 0.061,
        "meta_ra_of_asc_node": 99.6997,
        "meta_arg_of_pericenter": 19.5868,
        "meta_mean_anomaly": 74.2081,
        "meta_ephemeris_type": 0,
        "meta_classification_type": "U",
        "meta_norad_cat_id": 54259,
        "meta_element_set_no": 999,
        "meta_rev_at_epoch": 1119,
        "meta_bstar": 0,
        "meta_mean_motion_dot": 9.1e-07,
        "meta_mean_motion_ddot": 0,
        "tle_line1": "1 54259U 22157A   25350.27319946  .00000091  00000+0  00000+0 0  9996",
        "tle_line2": "2 54259   0.0610  99.6997 0000708  19.5868  74.2081  1.00271269 11197"
      },
      "geometry": {
        "type": "Point",
        "coordinates": [
          89.97578515953931,
          0.017831338097083625
        ]
      }
    },
    {
      "type": "Feature",
      "properties": {
        "norad_id": 59346,
        "name": "EUTELSAT 36D",
        "group": "eutelsat",
        "lat": 0.040079165008211036,
        "lon": 115.83661113079322,
        "alt_km": 35786.51931621189,
        "timestamp": "2025-12-16T23:36:35.856801+00:00",
        "meta_object_name": "EUTELSAT 36D",
        "meta_object_id": "2024-059A",
        "meta_epoch": "2025-12-16T06:40:46.227648",
        "meta_mean_motion": 1.00270923,
        "meta_eccentricity": 3.664e-05,
        "meta_inclination": 0.0236,
        "meta_ra_of_asc_node": 1.3305,
        "meta_arg_of_pericenter": 13.214,
        "meta_mean_anomaly": 206.6495,
        "meta_ephemeris_type": 0,
        "meta_classification_type": "U",
        "meta_norad_cat_id": 59346,
        "meta_element_set_no": 999,
        "meta_rev_at_epoch": 631,
        "meta_bstar": 0,
        "meta_mean_motion_dot": 0,
        "meta_mean_motion_ddot": 0,
        "tle_line1": "1 59346U 24059A   25350.27831282  .00000000  00000+0  00000+0 0  9993",
        "tle_line2": "2 59346   0.0236   1.3305 0000366  13.2140 206.6495  1.00270923  6314"
      },
      "geometry": {
        "type": "Point",
        "coordinates": [
          115.83661113079322,
          0.040079165008211036
        ]
      }
    }
  ]
}